CCSDS_OEM_VERS = 1.0
CREATION_DATE  = 2017-05-11T10:57:17
ORIGINATOR     = GMAT USER

META_START
OBJECT_NAME          = MOPSSat_alt_35785_km_RAAN_0_027
OBJECT_ID            = SatId
CENTER_NAME          = Earth
REF_FRAME            = EME2000
TIME_SYSTEM          = UTC
START_TIME           = 2017-01-01T00:00:00.000
USEABLE_START_TIME   = 2017-01-01T00:00:00.000
USEABLE_STOP_TIME    = 2017-01-02T00:00:00.000
STOP_TIME            = 2017-01-02T00:00:00.000
INTERPOLATION        = Lagrange
INTERPOLATION_DEGREE = 7 
META_STOP


                                                                                   

2017-01-01T23:13:20.000   4.143104717778641e+04  -7.825988667539602e+03  -1.768368649082104e+00   5.707125287878908e-01   3.021292172275908e+00  -1.159740672621227e-04
2017-01-01T23:13:30.000   4.143674328637674e+04  -7.795773668543481e+03  -1.769528082638670e+00   5.685091612717071e-01   3.021707477707217e+00  -1.159126343784820e-04
2017-01-01T23:13:40.000   4.144241735983434e+04  -7.765554524238955e+03  -1.770686901450721e+00   5.663054913850792e-01   3.022121176243557e+00  -1.158511161420604e-04
2017-01-01T23:13:50.000   4.144806939514327e+04  -7.735331250680049e+03  -1.771845104665375e+00   5.641015202987522e-01   3.022533267665120e+00  -1.157895125667508e-04
2017-01-01T23:14:00.000   4.145369938929690e+04  -7.705103863938939e+03  -1.773002691429299e+00   5.618972491847918e-01   3.022943751752783e+00  -1.157278236665479e-04
2017-01-01T23:14:10.000   4.145930733929685e+04  -7.674872380105670e+03  -1.774159660888681e+00   5.596926792165687e-01   3.023352628288019e+00  -1.156660494555432e-04
2017-01-01T23:14:20.000   4.146489324210184e+04  -7.644636815579392e+03  -1.775316012178181e+00   5.574878115899938e-01   3.023759897049174e+00  -1.156041899485320e-04
2017-01-01T23:14:30.000   4.147045709469763e+04  -7.614397186676312e+03  -1.776471744435842e+00   5.552826474949296e-01   3.024165557816568e+00  -1.155422451602007e-04
2017-01-01T23:14:40.000   4.147599889406904e+04  -7.584153509784053e+03  -1.777626856797206e+00   5.530771881264458e-01   3.024569610370457e+00  -1.154802151054458e-04
2017-01-01T23:14:50.000   4.148151863732532e+04  -7.553905800679178e+03  -1.778781348421392e+00   5.508714346350512e-01   3.024972054500158e+00  -1.154180997979722e-04
2017-01-01T23:15:00.000   4.148701632157451e+04  -7.523654075209594e+03  -1.779935218465006e+00   5.486653881764586e-01   3.025372889994909e+00  -1.153558992516944e-04
2017-01-01T23:15:10.000   4.149249194395243e+04  -7.493398349140363e+03  -1.781088466088065e+00   5.464590499003377e-01   3.025772116645971e+00  -1.152936134804204e-04
2017-01-01T23:15:20.000   4.149794550154853e+04  -7.463138638544956e+03  -1.782241090438962e+00   5.442524209788492e-01   3.026169734241227e+00  -1.152312424986481e-04
2017-01-01T23:15:30.000   4.150337699146177e+04  -7.432874959514908e+03  -1.783393090665655e+00   5.420455025854702e-01   3.026565742569252e+00  -1.151687863209775e-04
2017-01-01T23:15:40.000   4.150878641079942e+04  -7.402607328159589e+03  -1.784544465915623e+00   5.398382958949790e-01   3.026960141419223e+00  -1.151062449621060e-04
2017-01-01T23:15:50.000   4.151417375662791e+04  -7.372335760897756e+03  -1.785695215324887e+00   5.376308021047138e-01   3.027352930577344e+00  -1.150436184374416e-04
2017-01-01T23:16:00.000   4.151953902604010e+04  -7.342060274065027e+03  -1.786845338032841e+00   5.354230224059516e-01   3.027744109831750e+00  -1.149809067622812e-04
2017-01-01T23:16:10.000   4.152488221612806e+04  -7.311780884071383e+03  -1.787994833176283e+00   5.332149579953910e-01   3.028133678970506e+00  -1.149181099521396e-04
2017-01-01T23:16:20.000   4.153020332410542e+04  -7.281497606706427e+03  -1.789143699915801e+00   5.310066100244907e-01   3.028521637790557e+00  -1.148552280213076e-04
2017-01-01T23:16:30.000   4.153550234718456e+04  -7.251210457835825e+03  -1.790291937409316e+00   5.287979796502552e-01   3.028907986088745e+00  -1.147922609842965e-04
2017-01-01T23:16:40.000   4.154077928260840e+04  -7.220919453221546e+03  -1.791439544818924e+00   5.265890680221286e-01   3.029292723664142e+00  -1.147292088554659e-04
2017-01-01T23:16:50.000   4.154603412756368e+04  -7.190624609005100e+03  -1.792586521292495e+00   5.243798763172315e-01   3.029675850311727e+00  -1.146660716500227e-04
2017-01-01T23:17:00.000   4.155126687925302e+04  -7.160325941308833e+03  -1.793732865978868e+00   5.221704057112856e-01   3.030057365827632e+00  -1.146028493831978e-04
2017-01-01T23:17:10.000   4.155647753487872e+04  -7.130023466324862e+03  -1.794878578024460e+00   5.199606573851020e-01   3.030437270007968e+00  -1.145395420704300e-04
2017-01-01T23:17:20.000   4.156166609164848e+04  -7.099717200291169e+03  -1.796023656574228e+00   5.177506325228352e-01   3.030815562649247e+00  -1.144761497273196e-04
2017-01-01T23:17:30.000   4.156683254677949e+04  -7.069407159461162e+03  -1.797168100772768e+00   5.155403323097647e-01   3.031192243548660e+00  -1.144126723695625e-04
2017-01-01T23:17:40.000   4.157197689750023e+04  -7.039093360092761e+03  -1.798311909764742e+00   5.133297579314988e-01   3.031567312504233e+00  -1.143491100129270e-04
2017-01-01T23:17:50.000   4.157709914106972e+04  -7.008775818340127e+03  -1.799455082698985e+00   5.111189105660796e-01   3.031940769316213e+00  -1.142854626730311e-04
2017-01-01T23:18:00.000   4.158219927476435e+04  -6.978454550325745e+03  -1.800597618725752e+00   5.089077913892385e-01   3.032312613786114e+00  -1.142217303654887e-04
2017-01-01T23:18:10.000   4.158727729587802e+04  -6.948129572140465e+03  -1.801739516996728e+00   5.066964015744003e-01   3.032682845716729e+00  -1.141579131059111e-04
2017-01-01T23:18:20.000   4.159233320173343e+04  -6.917800899771055e+03  -1.802880776667720e+00   5.044847422873991e-01   3.033051464912950e+00  -1.140940109097500e-04
2017-01-01T23:18:30.000   4.159736698966453e+04  -6.887468549208724e+03  -1.804021396894602e+00   5.022728146943934e-01   3.033418471180489e+00  -1.140300237925298e-04
2017-01-01T23:18:40.000   4.160237865701496e+04  -6.857132536460110e+03  -1.805161376832898e+00   5.000606199626663e-01   3.033783864325765e+00  -1.139659517698708e-04
2017-01-01T23:18:50.000   4.160736820113157e+04  -6.826792877577231e+03  -1.806300715636617e+00   4.978481592628098e-01   3.034147644155435e+00  -1.139017948575489e-04
2017-01-01T23:19:00.000   4.161233561936211e+04  -6.796449588682024e+03  -1.807439412457387e+00   4.956354337705142e-01   3.034509810476216e+00  -1.138375530715521e-04
2017-01-01T23:19:10.000   4.161728090906928e+04  -6.766102685876961e+03  -1.808577466447783e+00   4.934224446600511e-01   3.034870363095917e+00  -1.137732264278894e-04
2017-01-01T23:19:20.000   4.162220406756763e+04  -6.735752185645280e+03  -1.809714876746399e+00   4.912091931334576e-01   3.035229301818838e+00  -1.137088149434453e-04
2017-01-01T23:19:30.000   4.162710509220037e+04  -6.705398104366069e+03  -1.810851642495957e+00   4.889956803851755e-01   3.035586626451369e+00  -1.136443186349460e-04
2017-01-01T23:19:40.000   4.163198398031067e+04  -6.675040458494515e+03  -1.811987762836564e+00   4.867819076151974e-01   3.035942336799895e+00  -1.135797375193426e-04
2017-01-01T23:19:50.000   4.163684072935396e+04  -6.644679263863668e+03  -1.813123236931857e+00   4.845678759781455e-01   3.036296432678994e+00  -1.135150716123285e-04
2017-01-01T23:20:00.000   4.164167533678578e+04  -6.614314536380878e+03  -1.814258063942920e+00   4.823535866340617e-01   3.036648913903237e+00  -1.134503209298177e-04
2017-01-01T23:20:10.000   4.164648780008745e+04  -6.583946291870038e+03  -1.815392243034208e+00   4.801390407369008e-01   3.036999780289090e+00  -1.133854854876115e-04
2017-01-01T23:20:20.000   4.165127811670074e+04  -6.553574546464404e+03  -1.816525773358770e+00   4.779242394631775e-01   3.037349031650128e+00  -1.133205653022253e-04
2017-01-01T23:20:30.000   4.165604628407737e+04  -6.523199316315093e+03  -1.817658654069242e+00   4.757091839907082e-01   3.037696667800653e+00  -1.132555603902783e-04
2017-01-01T23:20:40.000   4.166079229967765e+04  -6.492820617590853e+03  -1.818790884317819e+00   4.734938754985957e-01   3.038042688555595e+00  -1.131904707684888e-04
2017-01-01T23:20:50.000   4.166551616092789e+04  -6.462438466770636e+03  -1.819922463245449e+00   4.712783151885636e-01   3.038387093727403e+00  -1.131252964543119e-04
2017-01-01T23:21:00.000   4.167021786527904e+04  -6.432052880249719e+03  -1.821053389996421e+00   4.690625042562325e-01   3.038729883130325e+00  -1.130600374650853e-04
2017-01-01T23:21:10.000   4.167489741018317e+04  -6.401663874494784e+03  -1.822183663712605e+00   4.668464439024303e-01   3.039071056578690e+00  -1.129946938183643e-04
2017-01-01T23:21:20.000   4.167955479319931e+04  -6.371271465358162e+03  -1.823313283558966e+00   4.646301352831850e-01   3.039410613894622e+00  -1.129292655304462e-04
2017-01-01T23:21:30.000   4.168419001188735e+04  -6.340875668763542e+03  -1.824442248698050e+00   4.624135795597277e-01   3.039748554900320e+00  -1.128637526178454e-04
2017-01-01T23:21:40.000   4.168880306383255e+04  -6.310476500551005e+03  -1.825570558295757e+00   4.601967778871919e-01   3.040084879419818e+00  -1.127981550969611e-04
2017-01-01T23:21:50.000   4.169339394658267e+04  -6.280073976870238e+03  -1.826698211506651e+00   4.579797314432889e-01   3.040419587274422e+00  -1.127324729849160e-04
2017-01-01T23:22:00.000   4.169796265769543e+04  -6.249668113888708e+03  -1.827825207484894e+00   4.557624414070259e-01   3.040752678286168e+00  -1.126667062989366e-04
2017-01-01T23:22:10.000   4.170250919473734e+04  -6.219258927791486e+03  -1.828951545384209e+00   4.535449089586939e-01   3.041084152277728e+00  -1.126008550563494e-04
2017-01-01T23:22:20.000   4.170703355524290e+04  -6.188846435074048e+03  -1.830077224347145e+00   4.513271353012200e-01   3.041414009069446e+00  -1.125349192752244e-04
